{
    "links": {
        "self": "http://www.neowsapp.com/rest/v1/neo/54048866?api_key=iIulBulltgU6a56xZRHN4H3l9WmuAYTsLGpBGhQ2"
    },
    "id": "54048866",
    "neo_reference_id": "54048866",
    "name": "(2020 ON)",
    "designation": "2020 ON",
    "nasa_jpl_url": "http://ssd.jpl.nasa.gov/sbdb.cgi?sstr=54048866",
    "absolute_magnitude_h": 23.744,
    "estimated_diameter": {
        "kilometers": {
            "estimated_diameter_min": 0.0473974499,
            "estimated_diameter_max": 0.10598392
        },
        "meters": {
            "estimated_diameter_min": 47.397449946,
            "estimated_diameter_max": 105.9839200393
        },
        "miles": {
            "estimated_diameter_min": 0.0294514009,
            "estimated_diameter_max": 0.0658553344
        },
        "feet": {
            "estimated_diameter_min": 155.5034496807,
            "estimated_diameter_max": 347.7162842217
        }
    },
    "is_potentially_hazardous_asteroid": false,
    "close_approach_data": [
        {
            "close_approach_date": "2020-07-23",
            "close_approach_date_full": "2020-Jul-23 14:01",
            "epoch_date_close_approach": 1595512860000,
            "relative_velocity": {
                "kilometers_per_second": "17.3940479563",
                "kilometers_per_hour": "62618.5726427819",
                "miles_per_hour": "38908.7458735108"
            },
            "miss_distance": {
                "astronomical": "0.0348717568",
                "lunar": "13.5651133952",
                "kilometers": "5216740.540438016",
                "miles": "3241532.2599799808"
            },
            "orbiting_body": "Earth"
        }
    ],
    "orbital_data": {
        "orbit_id": "6",
        "orbit_determination_date": "2020-07-28 06:42:11",
        "first_observation_date": "2020-07-18",
        "last_observation_date": "2020-07-27",
        "data_arc_in_days": 9,
        "observations_used": 106,
        "orbit_uncertainty": "8",
        "minimum_orbit_intersection": ".0316669",
        "jupiter_tisserand_invariant": "2.978",
        "epoch_osculation": "2459050.5",
        "eccentricity": ".6440607653589583",
        "semi_major_axis": "2.629962674976338",
        "inclination": "23.28454167145084",
        "ascending_node_longitude": "117.4245068309077",
        "orbital_period": "1557.839832913012",
        "perihelion_distance": ".9361069016655845",
        "perihelion_argument": "224.7680453210787",
        "aphelion_distance": "4.323818448287092",
        "perihelion_time": "2459086.325420143198",
        "mean_anomaly": "351.721131416036",
        "mean_motion": ".2310892252169687",
        "equinox": "J2000",
        "orbit_class": {
            "orbit_class_type": "APO",
            "orbit_class_description": "Near-Earth asteroid orbits which cross the Earth’s orbit similar to that of 1862 Apollo",
            "orbit_class_range": "a (semi-major axis) > 1.0 AU; q (perihelion) < 1.017 AU"
        }
    },
    "is_sentry_object": false
}